ORBCOMM FM33            
1 25983U 99065D   25266.25560811  .00001961  00000+0  65876-3 0  9996
2 25983  45.0278 252.6432 0008451 212.8445 147.1880 14.40194737350202
ORBCOMM FM36            
1 25984U 99065E   25265.93108869  .00002191  00000+0  75875-3 0  9998
2 25984  45.0410 347.6118 0001347 114.4893 245.6097 14.38354984348499
ORBCOMM FM35            
1 25985U 99065F   25265.56446894  .00001465  00000+0  53388-3 0  9999
2 25985  45.0411 355.1622 0004987 184.5087 175.5717 14.37295955348795
ORBCOMM FM34            
1 25986U 99065G   25265.52962375  .00001373  00000+0  50351-3 0  9998
2 25986  45.0409 355.7828 0003620 142.7501 217.3599 14.37294226348903
ORBCOMM FM38            
1 33060U 08031A   25266.21052618  .00004061  00000+0  53671-3 0  9995
2 33060  48.4387 207.9843 0004435 100.7645 259.3770 14.81692246929286
ORBCOMM FM41            
1 33061U 08031B   25266.17687694  .00004160  00000+0  55472-3 0  9990
2 33061  48.4424 216.2655 0003714  81.8014 292.4979 14.81265407928767
ORBCOMM FM29            
1 33062U 08031C   25266.15382532  .00004466  00000+0  59185-3 0  9996
2 33062  48.4376 224.0613 0005360  82.4627 291.0653 14.81383409928678
ORBCOMM FM39            
1 33063U 08031D   25266.21175495  .00003875  00000+0  53556-3 0  9991
2 33063  48.4386 249.1474 0006386  52.0643 308.0848 14.79889698928317
